GLOBALSTAR M068         
1 32266U 07048D   25321.94688367 -.00000030  00000+0  40869-3 0  9995
2 32266  51.9867 193.5422 0001972  95.0740  10.7843 12.62833561836981
GLOBALSTAR M079         
1 37188U 10054A   25321.65836719 -.00000091  00000+0  68596-4 0  9993
2 37188  52.0063  32.5946 0000298 151.3675  13.6796 12.62268539695838
GLOBALSTAR M074         
1 37189U 10054B   25321.92361454 -.00000087  00000+0  91374-4 0  9998
2 37189  52.0041  31.0851 0000432 104.2957  66.7858 12.62273200696474
GLOBALSTAR M076         
1 37190U 10054C   25321.62905809 -.00000094  00000+0  54161-4 0  9996
2 37190  52.0050  32.1684 0000259  94.8523  55.5909 12.62267402696157
GLOBALSTAR M077         
1 37191U 10054D   25321.81155036 -.00000075  00000+0  13548-3 0  9999
2 37191  52.0124 357.5574 0008934  91.8356  79.4125 11.95391600696407
GLOBALSTAR M075         
1 37192U 10054E   25321.80435950 -.00000111  00000+0 -37806-4 0  9991
2 37192  51.9952  73.8035 0000764 110.5111  58.2780 12.62269654695247
GLOBALSTAR M073         
1 37193U 10054F   25322.00833646 -.00000071  00000+0  18019-3 0  9997
2 37193  52.0081 347.1241 0000087  61.1550 313.3150 12.62264342697264
GLOBALSTAR M083         
1 37739U 11033A   25322.11453647 -.00000098  00000+0  30479-4 0  9996
2 37739  51.9868 295.3179 0000287  43.9680  35.1874 12.62264466666297
GLOBALSTAR M088         
1 37740U 11033B   25321.91569814 -.00000066  00000+0  21096-3 0  9998
2 37740  52.0199 201.8403 0001036  78.6011 295.4661 12.62270180661814
GLOBALSTAR M091         
1 37741U 11033C   25322.03598197 -.00000060  00000+0  24514-3 0  9991
2 37741  51.9968 164.7515 0001020  98.0393  42.7637 12.62261954662614
GLOBALSTAR M085         
1 37742U 11033D   25321.86955659 -.00000096  00000+0  45510-4 0  9991
2 37742  52.0106 116.3634 0000967 116.6007  47.9783 12.62266839663105
GLOBALSTAR M081         
1 37743U 11033E   25321.89589531 -.00000090  00000+0  76617-4 0  9993
2 37743  51.9937 118.9592 0000801 105.8896  58.6209 12.62270596663253
GLOBALSTAR M089         
1 37744U 11033F   25321.77337447 -.00000114  00000+0 -57167-4 0  9995
2 37744  51.9935  73.5295 0000741  93.4906  55.0068 12.62272530664081
GLOBALSTAR M084         
1 38040U 11080A   25322.16819203 -.00000084  00000+0  11189-3 0  9994
2 38040  52.0022 299.7006 0000678  37.2220  45.1796 12.62265415642118
GLOBALSTAR M080         
1 38041U 11080B   25322.13914205 -.00000087  00000+0  93319-4 0  9999
2 38041  52.0075 301.4344 0000609 108.2739 331.7766 12.62271109642232
GLOBALSTAR M082         
1 38042U 11080C   25322.16058243 -.00000099  00000+0  24324-4 0  9997
2 38042  52.0077 256.8469 0000661  89.6558  17.8197 12.62264967642947
GLOBALSTAR M092         
1 38043U 11080D   25321.83157016 -.00000087  00000+0  95712-4 0  9995
2 38043  52.0107 348.2342 0000351  92.4433  78.6143 12.62267777641350
GLOBALSTAR M090         
1 38044U 11080E   25322.10700455 -.00000097  00000+0  35363-4 0  9995
2 38044  52.0124 250.8982 0000562  63.6720  39.2310 12.62264186643050
GLOBALSTAR M086         
1 38045U 11080F   25322.13197876 -.00000094  00000+0  56557-4 0  9991
2 38045  51.9896 251.0955 0000858 340.8168 123.7672 12.62279640643008
GLOBALSTAR M097         
1 39072U 13005A   25321.97846152 -.00000061  00000+0  23988-3 0  9995
2 39072  52.0020 166.2747 0000826  88.3979 271.6983 12.62267483590231
GLOBALSTAR M093         
1 39073U 13005B   25321.87324601 -.00000067  00000+0  20470-3 0  9994
2 39073  52.0076 159.8619 0000701 101.6507 258.4439 12.62270624590170
GLOBALSTAR M094         
1 39074U 13005C   25321.79380793 -.00000114  00000+0 -58272-4 0  9996
2 39074  51.9963  74.4274 0000615 131.3117 228.7803 12.62264954591775
GLOBALSTAR M096         
1 39075U 13005D   25321.88611941 -.00000094  00000+0  55344-4 0  9992
2 39075  52.0047 122.7814 0000875 114.7945 245.3012 12.62268953590702
GLOBALSTAR M078         
1 39076U 13005E   25321.93941030 -.00000162  00000+0 -32216-3 0  9993
2 39076  51.9865 206.9255 0001281 121.0265 239.0728 12.62271800589337
GLOBALSTAR M095         
1 39077U 13005F   25321.72796123 -.00000070  00000+0  18685-3 0  9993
2 39077  52.0065 204.8723 0000776 103.3587 256.7366 12.62266414589167
GLOBALSTAR M087         
1 52888U 22064A   25321.82005388 -.00000085  00000+0  10408-3 0  9991
2 52888  52.0015 345.9486 0000229 139.9671 220.1212 12.62260518164446
